O3B MPOWER F1           
1 54755U 22174A   23332.90363808 -.00000023  00000+0  00000+0 0  9996
2 54755   0.0545  17.9416 0005724 244.2922 190.2547  5.00118361 18779
